{
  "type": "FeatureCollection",
  "features": [
    {
      "type": "Feature",
      "properties": {
        "norad_id": 37846,
        "name": "GSAT0101 (GALILEO-PFM)",
        "group": "gnss",
        "lat": -9.32157124485759,
        "lon": -19.427177277041878,
        "alt_km": 23215.77429112756,
        "timestamp": "2025-12-17T13:48:37.797009+00:00",
        "meta_object_name": "GSAT0101 (GALILEO-PFM)",
        "meta_object_id": "2011-060A",
        "meta_epoch": "2025-12-15T20:00:41.819904",
        "meta_mean_motion": 1.70475823,
        "meta_eccentricity": 0.00030775,
        "meta_inclination": 57.052,
        "meta_ra_of_asc_node": 346.7358,
        "meta_arg_of_pericenter": 316.7426,
        "meta_mean_anomaly": 43.2514,
        "meta_ephemeris_type": 0,
        "meta_classification_type": "U",
        "meta_norad_cat_id": 37846,
        "meta_element_set_no": 999,
        "meta_rev_at_epoch": 8799,
        "meta_bstar": 0,
        "meta_mean_motion_dot": -8.2e-07,
        "meta_mean_motion_ddot": 0,
        "tle_line1": "1 37846U 11060A   25349.83381736 -.00000082  00000+0  00000+0 0  9997",
        "tle_line2": "2 37846  57.0520 346.7358 0003077 316.7426  43.2514  1.70475823 87990"
      },
      "geometry": {
        "type": "Point",
        "coordinates": [
          -19.427177277041878,
          -9.32157124485759
        ]
      }
    },
    {
      "type": "Feature",
      "properties": {
        "norad_id": 37847,
        "name": "GSAT0102 (GALILEO-FM2)",
        "group": "gnss",
        "lat": 28.27843261239377,
        "lon": 7.108180888571802,
        "alt_km": 23216.830744109837,
        "timestamp": "2025-12-17T13:48:37.797021+00:00",
        "meta_object_name": "GSAT0102 (GALILEO-FM2)",
        "meta_object_id": "2011-060B",
        "meta_epoch": "2025-12-16T01:10:38.655264",
        "meta_mean_motion": 1.7047605,
        "meta_eccentricity": 0.00050527,
        "meta_inclination": 57.0527,
        "meta_ra_of_asc_node": 346.7304,
        "meta_arg_of_pericenter": 311.0932,
        "meta_mean_anomaly": 226.4679,
        "meta_ephemeris_type": 0,
        "meta_classification_type": "U",
        "meta_norad_cat_id": 37847,
        "meta_element_set_no": 999,
        "meta_rev_at_epoch": 8800,
        "meta_bstar": 0,
        "meta_mean_motion_dot": -8.2e-07,
        "meta_mean_motion_ddot": 0,
        "tle_line1": "1 37847U 11060B   25350.04905851 -.00000082  00000+0  00000+0 0  9993",
        "tle_line2": "2 37847  57.0527 346.7304 0005052 311.0932 226.4679  1.70476050 88007"
      },
      "geometry": {
        "type": "Point",
        "coordinates": [
          7.108180888571802,
          28.27843261239377
        ]
      }
    },
    {
      "type": "Feature",
      "properties": {
        "norad_id": 37867,
        "name": "COSMOS 2476 (744)",
        "group": "gnss",
        "lat": 20.523003661106582,
        "lon": -110.94994965099602,
        "alt_km": 19114.031745274882,
        "timestamp": "2025-12-17T13:48:37.797033+00:00",
        "meta_object_name": "COSMOS 2476 (744)",
        "meta_object_id": "2011-064A",
        "meta_epoch": "2025-12-16T10:28:18.881760",
        "meta_mean_motion": 2.13101449,
        "meta_eccentricity": 0.00243502,
        "meta_inclination": 65.164,
        "meta_ra_of_asc_node": 79.0464,
        "meta_arg_of_pericenter": 234.7014,
        "meta_mean_anomaly": 128.9307,
        "meta_ephemeris_type": 0,
        "meta_classification_type": "U",
        "meta_norad_cat_id": 37867,
        "meta_element_set_no": 999,
        "meta_rev_at_epoch": 10987,
        "meta_bstar": 0,
        "meta_mean_motion_dot": -5.4e-07,
        "meta_mean_motion_ddot": 0,
        "tle_line1": "1 37867U 11064A   25350.43632965 -.00000054  00000+0  00000+0 0  9994",
        "tle_line2": "2 37867  65.1640  79.0464 0024350 234.7014 128.9307  2.13101449109870"
      },
      "geometry": {
        "type": "Point",
        "coordinates": [
          -110.94994965099602,
          20.523003661106582
        ]
      }
    },
    {
      "type": "Feature",
      "properties": {
        "norad_id": 37868,
        "name": "COSMOS 2477 (745)",
        "group": "gnss",
        "lat": -19.26285295674769,
        "lon": 69.79881954608075,
        "alt_km": 19145.90280427557,
        "timestamp": "2025-12-17T13:48:37.797045+00:00",
        "meta_object_name": "COSMOS 2477 (745)",
        "meta_object_id": "2011-064B",
        "meta_epoch": "2025-12-15T06:06:12.573216",
        "meta_mean_motion": 2.1310289,
        "meta_eccentricity": 0.00211455,
        "meta_inclination": 65.1707,
        "meta_ra_of_asc_node": 79.1637,
        "meta_arg_of_pericenter": 234.5873,
        "meta_mean_anomaly": 123.1925,
        "meta_ephemeris_type": 0,
        "meta_classification_type": "U",
        "meta_norad_cat_id": 37868,
        "meta_element_set_no": 999,
        "meta_rev_at_epoch": 10983,
        "meta_bstar": 0,
        "meta_mean_motion_dot": -5.6e-07,
        "meta_mean_motion_ddot": 0,
        "tle_line1": "1 37868U 11064B   25349.25431219 -.00000056  00000+0  00000+0 0  9994",
        "tle_line2": "2 37868  65.1707  79.1637 0021145 234.5873 123.1925  2.13102890109838"
      },
      "geometry": {
        "type": "Point",
        "coordinates": [
          69.79881954608075,
          -19.26285295674769
        ]
      }
    },
    {
      "type": "Feature",
      "properties": {
        "norad_id": 37869,
        "name": "COSMOS 2475 (743)",
        "group": "gnss",
        "lat": -55.622846345362696,
        "lon": 36.63356053773019,
        "alt_km": 19089.25100271832,
        "timestamp": "2025-12-17T13:48:37.797066+00:00",
        "meta_object_name": "COSMOS 2475 (743)",
        "meta_object_id": "2011-064C",
        "meta_epoch": "2025-12-16T17:15:16.173216",
        "meta_mean_motion": 2.1310159,
        "meta_eccentricity": 0.00263578,
        "meta_inclination": 65.1784,
        "meta_ra_of_asc_node": 79.1342,
        "meta_arg_of_pericenter": 248.7608,
        "meta_mean_anomaly": 108.5583,
        "meta_ephemeris_type": 0,
        "meta_classification_type": "U",
        "meta_norad_cat_id": 37869,
        "meta_element_set_no": 999,
        "meta_rev_at_epoch": 10987,
        "meta_bstar": 0,
        "meta_mean_motion_dot": -5.2e-07,
        "meta_mean_motion_ddot": 0,
        "tle_line1": "1 37869U 11064C   25350.71893719 -.00000052  00000+0  00000+0 0  9991",
        "tle_line2": "2 37869  65.1784  79.1342 0026357 248.7608 108.5583  2.13101590109877"
      },
      "geometry": {
        "type": "Point",
        "coordinates": [
          36.63356053773019,
          -55.622846345362696
        ]
      }
    },
    {
      "type": "Feature",
      "properties": {
        "norad_id": 37948,
        "name": "BEIDOU-2 IGSO-5 (C10)",
        "group": "gnss",
        "lat": 43.64552125416156,
        "lon": 34.78030838187613,
        "alt_km": 35932.607546381514,
        "timestamp": "2025-12-17T13:48:37.797078+00:00",
        "meta_object_name": "BEIDOU-2 IGSO-5 (C10)",
        "meta_object_id": "2011-073A",
        "meta_epoch": "2025-12-16T20:45:03.347712",
        "meta_mean_motion": 1.00290524,
        "meta_eccentricity": 0.01100285,
        "meta_inclination": 48.0123,
        "meta_ra_of_asc_node": 273.8075,
        "meta_arg_of_pericenter": 222.3616,
        "meta_mean_anomaly": 354.0663,
        "meta_ephemeris_type": 0,
        "meta_classification_type": "U",
        "meta_norad_cat_id": 37948,
        "meta_element_set_no": 999,
        "meta_rev_at_epoch": 5130,
        "meta_bstar": 0,
        "meta_mean_motion_dot": -1.89e-06,
        "meta_mean_motion_ddot": 0,
        "tle_line1": "1 37948U 11073A   25350.86462208 -.00000189  00000+0  00000+0 0  9991",
        "tle_line2": "2 37948  48.0123 273.8075 0110028 222.3616 354.0663  1.00290524 51306"
      },
      "geometry": {
        "type": "Point",
        "coordinates": [
          34.78030838187613,
          43.64552125416156
        ]
      }
    },
    {
      "type": "Feature",
      "properties": {
        "norad_id": 37951,
        "name": "LUCH 5A (SDCM/PRN 140)",
        "group": "gnss",
        "lat": 3.413537775945308,
        "lon": 100.48442757985993,
        "alt_km": 35805.689840841726,
        "timestamp": "2025-12-17T13:48:37.797090+00:00",
        "meta_object_name": "LUCH 5A (SDCM/PRN 140)",
        "meta_object_id": "2011-074B",
        "meta_epoch": "2025-12-16T12:21:38.678400",
        "meta_mean_motion": 1.0027572,
        "meta_eccentricity": 0.00053409,
        "meta_inclination": 8.2891,
        "meta_ra_of_asc_node": 76.531,
        "meta_arg_of_pericenter": 183.3714,
        "meta_mean_anomaly": 178.0263,
        "meta_ephemeris_type": 0,
        "meta_classification_type": "U",
        "meta_norad_cat_id": 37951,
        "meta_element_set_no": 999,
        "meta_rev_at_epoch": 5122,
        "meta_bstar": 0,
        "meta_mean_motion_dot": -3e-07,
        "meta_mean_motion_ddot": 0,
        "tle_line1": "1 37951U 11074B   25350.51503100 -.00000030  00000+0  00000+0 0  9990",
        "tle_line2": "2 37951   8.2891  76.5310 0005340 183.3714 178.0263  1.00275720 51227"
      },
      "geometry": {
        "type": "Point",
        "coordinates": [
          100.48442757985993,
          3.413537775945308
        ]
      }
    }
  ]
}